GLOBALSTAR M045         
1 25676U 99019A   24291.46495271 -.00000095  00000+0 -10204-4 0  9996
2 25676  51.9964 277.0735 0000679  76.3162  96.2949 12.27048679163599
GLOBALSTAR M019         
1 25677U 99019B   24291.59024021  .00000022  00000+0  11723-2 0  9995
2 25677  51.9902  30.0086 0001341 167.3531 206.1911 12.13862933155680
GLOBALSTAR M044         
1 25678U 99019C   24291.50509499  .00000014  00000+0  13642-2 0  9997
2 25678  51.9980 311.2504 0006295 293.9796 220.5366 11.90244114142429
GLOBALSTAR M042         
1 25679U 99019D   24291.54567678 -.00000026  00000+0  62285-3 0  9997
2 25679  52.0044  15.9298 0003330 150.7712 222.2736 12.22070619155591
GLOBALSTAR M025         
1 25770U 99031A   24291.58869962 -.00000034  00000+0  10451-2 0  9994
2 25770  51.9858   1.2673 0001864 103.7801  39.6654 11.22554385454469
GLOBALSTAR M049         
1 25771U 99031B   24291.57791079 -.00000074  00000+0 -30999-3 0  9992
2 25771  51.9917  23.8604 0002618 337.6562  22.4120 11.12111638 90430
GLOBALSTAR M047         
1 25772U 99031C   24291.56789377 -.00000076  00000+0 -18208-3 0  9991
2 25772  51.9861  44.0308 0016319 203.5288 156.4773 11.31923837443633
GLOBALSTAR M052         
1 25773U 99031D   24291.04960939  .00000007  00000+0  24350-2 0  9996
2 25773  51.9835 137.1551 0003402 114.0415  56.5179 11.15055047451388
